[{"OBJECT_NAME":"OBJECT B","OBJECT_ID":"2024-174B","EPOCH":"2026-03-09T23:26:11.570784","MEAN_MOTION":15.09493991,"ECCENTRICITY":0.00195829,"INCLINATION":97.4508,"RA_OF_ASC_NODE":75.153,"ARG_OF_PERICENTER":270.277,"MEAN_ANOMALY":89.6216,"EPHEMERIS_TYPE":0,"CLASSIFICATION_TYPE":"U","NORAD_CAT_ID":61239,"ELEMENT_SET_NO":999,"REV_AT_EPOCH":8042,"BSTAR":0.00031274192,"MEAN_MOTION_DOT":4.97e-5,"MEAN_MOTION_DDOT":0},{"OBJECT_NAME":"STARLINK-34580","OBJECT_ID":"2025-218T","EPOCH":"2026-03-09T13:56:44.346912","MEAN_MOTION":15.05645141,"ECCENTRICITY":0.0001593,"INCLINATION":97.6022,"RA_OF_ASC_NODE":292.8504,"ARG_OF_PERICENTER":85.4453,"MEAN_ANOMALY":274.6956,"EPHEMERIS_TYPE":0,"CLASSIFICATION_TYPE":"U","NORAD_CAT_ID":65808,"ELEMENT_SET_NO":999,"REV_AT_EPOCH":2495,"BSTAR":0.00060789,"MEAN_MOTION_DOT":8.72e-5,"MEAN_MOTION_DDOT":0}]
